start=new Date('2022-04-08T00:00:00.000Z').valueOf();
sats=[{"OBJECT_NAME":"STARLINK-2527","SEMIMAJOR_AXIS":"6925.320","DECAY_DATE":null,"RA_OF_ASC_NODE":"50.4947","MEAN_MOTION_DDOT":"0.0000000000000","REV_AT_EPOCH":"5217","ELEMENT_SET_NO":"999","REF_FRAME":"TEME","TIME_SYSTEM":"UTC","ECCENTRICITY":"0.00014370","FILE":"3392478","SITE":"AFETR","MEAN_MOTION_DOT":"0.00002631","PERIOD":"95.592","GP_ID":"200700031","MEAN_ELEMENT_THEORY":"SGP4","MEAN_MOTION":"15.06409424","ARG_OF_PERICENTER":"66.4206","CENTER_NAME":"EARTH","TLE_LINE2":"2 48324  53.0540  50.4947 0001437  66.4206 293.6934 15.06409424 52174","TLE_LINE1":"1 48324U 21036BA  22097.60556881  .00002631  00000-0  19542-3 0  9998","APOAPSIS":"548.180","OBJECT_ID":"2021-036BA","RCS_SIZE":"LARGE","MEAN_ANOMALY":"293.6934","CLASSIFICATION_TYPE":"U","EPHEMERIS_TYPE":"0","LAUNCH_DATE":"2021-04-29","NORAD_CAT_ID":"48324","COUNTRY_CODE":"US","OBJECT_TYPE":"PAYLOAD","EPOCH":"2022-04-07T14:32:01.145184","INCLINATION":"53.0540","PERIAPSIS":"546.190","BSTAR":"0.00019542000000"},{"BSTAR":"0.00022259000000","PERIAPSIS":"546.098","INCLINATION":"53.0549","NORAD_CAT_ID":"48325","EPOCH":"2022-04-07T14:26:42.857088","COUNTRY_CODE":"US","OBJECT_TYPE":"PAYLOAD","EPHEMERIS_TYPE":"0","CLASSIFICATION_TYPE":"U","LAUNCH_DATE":"2021-04-29","MEAN_ANOMALY":"304.5556","RCS_SIZE":"LARGE","OBJECT_ID":"2021-036BB","CENTER_NAME":"EARTH","ARG_OF_PERICENTER":"55.5584","APOAPSIS":"548.310","TLE_LINE1":"1 48325U 21036BB  22097.60188492  .00003036  00000-0  22259-3 0  9997","TLE_LINE2":"2 48325  53.0549  50.5198 0001597  55.5584 304.5556 15.06403155 52186","MEAN_MOTION":"15.06403155","PERIOD":"95.592","MEAN_MOTION_DOT":"0.00003036","SITE":"AFETR","MEAN_ELEMENT_THEORY":"SGP4","GP_ID":"200662168","TIME_SYSTEM":"UTC","ECCENTRICITY":"0.00015970","FILE":"3391885","REF_FRAME":"TEME","ELEMENT_SET_NO":"999","MEAN_MOTION_DDOT":"0.0000000000000","REV_AT_EPOCH":"5218","RA_OF_ASC_NODE":"50.5198","SEMIMAJOR_AXIS":"6925.339","DECAY_DATE":null,"OBJECT_NAME":"STARLINK-2495"},{"SEMIMAJOR_AXIS":"6925.304","DECAY_DATE":null,"OBJECT_NAME":"STARLINK-2498","MEAN_MOTION_DDOT":"0.0000000000000","REV_AT_EPOCH":"5222","RA_OF_ASC_NODE":"49.3312","ELEMENT_SET_NO":"999","REF_FRAME":"TEME","TIME_SYSTEM":"UTC","ECCENTRICITY":"0.00014190","FILE":"3392478","MEAN_MOTION":"15.06414402","SITE":"AFETR","PERIOD":"95.591","MEAN_MOTION_DOT":"0.00010273","GP_ID":"200701528","MEAN_ELEMENT_THEORY":"SGP4","OBJECT_ID":"2021-036BC","RCS_SIZE":"LARGE","MEAN_ANOMALY":"277.2645","ARG_OF_PERICENTER":"82.8505","CENTER_NAME":"EARTH","TLE_LINE2":"2 48326  53.0556  49.3312 0001419  82.8505 277.2645 15.06414402 52225","APOAPSIS":"548.152","TLE_LINE1":"1 48326U 21036BC  22097.86358772  .00010273  00000-0  70729-3 0  9992","NORAD_CAT_ID":"48326","COUNTRY_CODE":"US","OBJECT_TYPE":"PAYLOAD","EPOCH":"2022-04-07T20:43:33.979008","CLASSIFICATION_TYPE":"U","EPHEMERIS_TYPE":"0","LAUNCH_DATE":"2021-04-29","PERIAPSIS":"546.187","BSTAR":"0.00070729000000","INCLINATION":"53.0556"},{"INCLINATION":"53.0567","PERIAPSIS":"546.039","BSTAR":"0.00010278000000","CLASSIFICATION_TYPE":"U","EPHEMERIS_TYPE":"0","LAUNCH_DATE":"2021-04-29","NORAD_CAT_ID":"48327","COUNTRY_CODE":"US","OBJECT_TYPE":"PAYLOAD","EPOCH":"2022-04-07T14:16:05.608704","CENTER_NAME":"EARTH","ARG_OF_PERICENTER":"66.1411","TLE_LINE2":"2 48327  53.0567  50.5356 0001646  66.1411 293.9751 15.06411436 52770","APOAPSIS":"548.318","TLE_LINE1":"1 48327U 21036BD  22097.59450936  .00001250  00000-0  10278-3 0  9996","OBJECT_ID":"2021-036BD","MEAN_ANOMALY":"293.9751","RCS_SIZE":"LARGE","SITE":"AFETR","PERIOD":"95.591","MEAN_MOTION_DOT":"0.00001250","GP_ID":"200665859","MEAN_ELEMENT_THEORY":"SGP4","MEAN_MOTION":"15.06411436","TIME_SYSTEM":"UTC","ECCENTRICITY":"0.00016460","FILE":"3391924","ELEMENT_SET_NO":"999","REF_FRAME":"TEME","RA_OF_ASC_NODE":"50.5356","MEAN_MOTION_DDOT":"0.0000000000000","REV_AT_EPOCH":"5277","OBJECT_NAME":"STARLINK-2502","SEMIMAJOR_AXIS":"6925.314","DECAY_DATE":null},{"OBJECT_ID":"2021-036BE","RCS_SIZE":"LARGE","MEAN_ANOMALY":"293.0019","TLE_LINE2":"2 48328  53.0563  49.3654 0001569  67.1136 293.0019 15.06404253 52220","TLE_LINE1":"1 48328U 21036BE  22097.85621195  .00003964  00000-0  28482-3 0  9993","APOAPSIS":"548.287","CENTER_NAME":"EARTH","ARG_OF_PERICENTER":"67.1136","MEAN_MOTION":"15.06404253","GP_ID":"200700532","MEAN_ELEMENT_THEORY":"SGP4","SITE":"AFETR","PERIOD":"95.592","MEAN_MOTION_DOT":"0.00003964","PERIAPSIS":"546.114","BSTAR":"0.00028482000000","INCLINATION":"53.0563","COUNTRY_CODE":"US","OBJECT_TYPE":"PAYLOAD","EPOCH":"2022-04-07T20:32:56.712480","NORAD_CAT_ID":"48328","LAUNCH_DATE":"2021-04-29","CLASSIFICATION_TYPE":"U","EPHEMERIS_TYPE":"0","REV_AT_EPOCH":"5222","MEAN_MOTION_DDOT":"0.0000000000000","RA_OF_ASC_NODE":"49.3654","DECAY_DATE":null,"SEMIMAJOR_AXIS":"6925.336","OBJECT_NAME":"STARLINK-2504","ECCENTRICITY":"0.00015690","FILE":"3392478","TIME_SYSTEM":"UTC","ELEMENT_SET_NO":"999","REF_FRAME":"TEME"},{"LAUNCH_DATE":"2021-04-29","EPHEMERIS_TYPE":"0","CLASSIFICATION_TYPE":"U","EPOCH":"2022-04-07T20:27:38.323296","COUNTRY_CODE":"US","OBJECT_TYPE":"PAYLOAD","NORAD_CAT_ID":"48329","INCLINATION":"53.0570","BSTAR":"0.00016176000000","PERIAPSIS":"546.043","MEAN_ELEMENT_THEORY":"SGP4","GP_ID":"200700782","PERIOD":"95.592","MEAN_MOTION_DOT":"0.00002129","SITE":"AFETR","MEAN_MOTION":"15.06405852","APOAPSIS":"548.349","TLE_LINE1":"1 48329U 21036BF  22097.85252689  .00002129  00000-0  16176-3 0  9991","TLE_LINE2":"2 48329  53.0570  49.3940 0001665  59.8480 300.2673 15.06405852 52227","CENTER_NAME":"EARTH","ARG_OF_PERICENTER":"59.8480","MEAN_ANOMALY":"300.2673","RCS_SIZE":"LARGE","OBJECT_ID":"2021-036BF","REF_FRAME":"TEME","ELEMENT_SET_NO":"999","ECCENTRICITY":"0.00016650","FILE":"3392478","TIME_SYSTEM":"UTC","OBJECT_NAME":"STARLINK-2510","DECAY_DATE":null,"SEMIMAJOR_AXIS":"6925.331","RA_OF_ASC_NODE":"49.3940","REV_AT_EPOCH":"5222","MEAN_MOTION_DDOT":"0.0000000000000"},{"MEAN_ELEMENT_THEORY":"SGP4","GP_ID":"200660416","MEAN_MOTION_DOT":"0.00002247","PERIOD":"95.593","SITE":"AFETR","MEAN_MOTION":"15.06394070","APOAPSIS":"548.158","TLE_LINE1":"1 48330U 21036BG  22097.18537759  .00002247  00000-0  16974-3 0  9990","TLE_LINE2":"2 48330  53.0545  52.3856 0001338  73.5164 286.5972 15.06394070 52126","ARG_OF_PERICENTER":"73.5164","CENTER_NAME":"EARTH","RCS_SIZE":"LARGE","MEAN_ANOMALY":"286.5972","OBJECT_ID":"2021-036BG","LAUNCH_DATE":"2021-04-29","EPHEMERIS_TYPE":"0","CLASSIFICATION_TYPE":"U","EPOCH":"2022-04-07T04:26:56.623776","OBJECT_TYPE":"PAYLOAD","COUNTRY_CODE":"US","NORAD_CAT_ID":"48330","INCLINATION":"53.0545","BSTAR":"0.00016974000000","PERIAPSIS":"546.305","OBJECT_NAME":"STARLINK-2501","DECAY_DATE":null,"SEMIMAJOR_AXIS":"6925.367","RA_OF_ASC_NODE":"52.3856","REV_AT_EPOCH":"5212","MEAN_MOTION_DDOT":"0.0000000000000","ELEMENT_SET_NO":"999","REF_FRAME":"TEME","FILE":"3391885","ECCENTRICITY":"0.00013380","TIME_SYSTEM":"UTC"},{"EPHEMERIS_TYPE":"0","CLASSIFICATION_TYPE":"U","LAUNCH_DATE":"2021-04-29","NORAD_CAT_ID":"48331","EPOCH":"2022-04-07T20:17:04.984512","OBJECT_TYPE":"PAYLOAD","COUNTRY_CODE":"US","INCLINATION":"53.0570","BSTAR":"-0.00060761000000","PERIAPSIS":"546.217","MEAN_MOTION_DOT":"-0.00009303","PERIOD":"95.597","SITE":"AFETR","MEAN_ELEMENT_THEORY":"SGP4","GP_ID":"200701283","MEAN_MOTION":"15.06328873","CENTER_NAME":"EARTH","ARG_OF_PERICENTER":"69.6837","TLE_LINE1":"1 48331U 21036BH  22097.84519658 -.00009303  00000-0 -60761-3 0  9997","APOAPSIS":"548.646","TLE_LINE2":"2 48331  53.0570  49.4270 0001754  69.6837 290.4340 15.06328873 52229","MEAN_ANOMALY":"290.4340","RCS_SIZE":"LARGE","OBJECT_ID":"2021-036BH","REF_FRAME":"TEME","ELEMENT_SET_NO":"999","TIME_SYSTEM":"UTC","FILE":"3392478","ECCENTRICITY":"0.00017540","OBJECT_NAME":"STARLINK-2514","SEMIMAJOR_AXIS":"6925.567","DECAY_DATE":null,"RA_OF_ASC_NODE":"49.4270","MEAN_MOTION_DDOT":"0.0000000000000","REV_AT_EPOCH":"5222"},{"RA_OF_ASC_NODE":"49.4220","MEAN_MOTION_DDOT":"0.0000000000000","REV_AT_EPOCH":"5222","OBJECT_NAME":"STARLINK-2511","SEMIMAJOR_AXIS":"6925.330","DECAY_DATE":null,"TIME_SYSTEM":"UTC","ECCENTRICITY":"0.00018640","FILE":"3392478","REF_FRAME":"TEME","ELEMENT_SET_NO":"999","ARG_OF_PERICENTER":"54.7260","CENTER_NAME":"EARTH","TLE_LINE1":"1 48332U 21036BJ  22097.84421218  .00003587  00000-0  25952-3 0  9991","APOAPSIS":"548.486","TLE_LINE2":"2 48332  53.0547  49.4220 0001864  54.7260 305.3903 15.06406150 52222","RCS_SIZE":"LARGE","MEAN_ANOMALY":"305.3903","OBJECT_ID":"2021-036BJ","PERIOD":"95.592","MEAN_MOTION_DOT":"0.00003587","SITE":"AFETR","MEAN_ELEMENT_THEORY":"SGP4","GP_ID":"200700032","MEAN_MOTION":"15.06406150","INCLINATION":"53.0547","BSTAR":"0.00025952000000","PERIAPSIS":"545.904","EPHEMERIS_TYPE":"0","CLASSIFICATION_TYPE":"U","LAUNCH_DATE":"2021-04-29","NORAD_CAT_ID":"48332","EPOCH":"2022-04-07T20:15:39.932352","COUNTRY_CODE":"US","OBJECT_TYPE":"PAYLOAD"},{"MEAN_MOTION_DOT":"0.00011002","PERIOD":"95.592","SITE":"AFETR","MEAN_ELEMENT_THEORY":"SGP4","GP_ID":"200668955","MEAN_MOTION":"15.06408698","ARG_OF_PERICENTER":"61.9816","CENTER_NAME":"EARTH","APOAPSIS":"548.258","TLE_LINE1":"1 48333U 21036BK  22097.57239860  .00011002  00000-0  75615-3 0  9994","TLE_LINE2":"2 48333  53.0544  50.6350 0001546  61.9816 298.1329 15.06408698 52772","MEAN_ANOMALY":"298.1329","RCS_SIZE":"LARGE","OBJECT_ID":"2021-036BK","EPHEMERIS_TYPE":"0","CLASSIFICATION_TYPE":"U","LAUNCH_DATE":"2021-04-29","NORAD_CAT_ID":"48333","EPOCH":"2022-04-07T13:44:15.239040","COUNTRY_CODE":"US","OBJECT_TYPE":"PAYLOAD","INCLINATION":"53.0544","BSTAR":"0.00075615000000","PERIAPSIS":"546.116","OBJECT_NAME":"STARLINK-2518","SEMIMAJOR_AXIS":"6925.322","DECAY_DATE":null,"RA_OF_ASC_NODE":"50.6350","MEAN_MOTION_DDOT":"0.0000000000000","REV_AT_EPOCH":"5277","REF_FRAME":"TEME","ELEMENT_SET_NO":"999","TIME_SYSTEM":"UTC","FILE":"3392019","ECCENTRICITY":"0.00015460"}];
